HIMAWARI-8              
1 40267U 14060A   24240.25743924 -.00000288  00000+0  00000+0 0  9995
2 40267   0.0362 243.2350 0000927 298.3789  27.6880  1.00272574 36159
